{
  "type": "FeatureCollection",
  "features": [
    {
      "type": "Feature",
      "properties": {
        "norad_id": 39617,
        "name": "ASTRA 5B (EGNOS/PRN 123)",
        "group": "gnss",
        "lat": -0.06711985630841315,
        "lon": -113.58551798414977,
        "alt_km": 35770.57354665774,
        "timestamp": "2025-12-19T08:58:49.581117+00:00",
        "meta_object_name": "ASTRA 5B (EGNOS/PRN 123)",
        "meta_object_id": "2014-011B",
        "meta_epoch": "2025-12-18T23:17:38.719392",
        "meta_mean_motion": 1.00270396,
        "meta_eccentricity": 0.00038418,
        "meta_inclination": 0.0428,
        "meta_ra_of_asc_node": 355.0527,
        "meta_arg_of_pericenter": 264.3848,
        "meta_mean_anomaly": 201.3069,
        "meta_ephemeris_type": 0,
        "meta_classification_type": "U",
        "meta_norad_cat_id": 39617,
        "meta_element_set_no": 999,
        "meta_rev_at_epoch": 4286,
        "meta_bstar": 0,
        "meta_mean_motion_dot": 1.62e-06,
        "meta_mean_motion_ddot": 0,
        "tle_line1": "1 39617U 14011B   25352.97058703  .00000162  00000+0  00000+0 0  9996",
        "tle_line2": "2 39617   0.0428 355.0527 0003841 264.3848 201.3069  1.00270396 42869"
      },
      "geometry": {
        "type": "Point",
        "coordinates": [
          -113.58551798414977,
          -0.06711985630841315
        ]
      }
    },
    {
      "type": "Feature",
      "properties": {
        "norad_id": 39620,
        "name": "COSMOS 2492 (754)",
        "group": "gnss",
        "lat": 2.197067242383013,
        "lon": 139.021709774434,
        "alt_km": 19155.655033292038,
        "timestamp": "2025-12-19T08:58:49.581128+00:00",
        "meta_object_name": "COSMOS 2492 (754)",
        "meta_object_id": "2014-012A",
        "meta_epoch": "2025-12-18T04:53:42.056736",
        "meta_mean_motion": 2.13103354,
        "meta_eccentricity": 0.0014217,
        "meta_inclination": 65.4043,
        "meta_ra_of_asc_node": 320.0846,
        "meta_arg_of_pericenter": 312.4931,
        "meta_mean_anomaly": 47.3782,
        "meta_ephemeris_type": 0,
        "meta_classification_type": "U",
        "meta_norad_cat_id": 39620,
        "meta_element_set_no": 999,
        "meta_rev_at_epoch": 9138,
        "meta_bstar": 0,
        "meta_mean_motion_dot": -6.4e-07,
        "meta_mean_motion_ddot": 0,
        "tle_line1": "1 39620U 14012A   25352.20395899 -.00000064  00000+0  00000+0 0  9999",
        "tle_line2": "2 39620  65.4043 320.0846 0014217 312.4931  47.3782  2.13103354 91389"
      },
      "geometry": {
        "type": "Point",
        "coordinates": [
          139.021709774434,
          2.197067242383013
        ]
      }
    },
    {
      "type": "Feature",
      "properties": {
        "norad_id": 39635,
        "name": "IRNSS-1B",
        "group": "gnss",
        "lat": 16.20591294594396,
        "lon": -85.2103215727393,
        "alt_km": 35849.36438023578,
        "timestamp": "2025-12-19T08:58:49.581140+00:00",
        "meta_object_name": "IRNSS-1B",
        "meta_object_id": "2014-017A",
        "meta_epoch": "2025-12-18T18:41:36.288672",
        "meta_mean_motion": 1.00270486,
        "meta_eccentricity": 0.00188687,
        "meta_inclination": 29.2555,
        "meta_ra_of_asc_node": 243.5019,
        "meta_arg_of_pericenter": 250.2597,
        "meta_mean_anomaly": 289.6629,
        "meta_ephemeris_type": 0,
        "meta_classification_type": "U",
        "meta_norad_cat_id": 39635,
        "meta_element_set_no": 999,
        "meta_rev_at_epoch": 4298,
        "meta_bstar": 0,
        "meta_mean_motion_dot": 1.5e-06,
        "meta_mean_motion_ddot": 0,
        "tle_line1": "1 39635U 14017A   25352.77889223  .00000150  00000+0  00000+0 0  9996",
        "tle_line2": "2 39635  29.2555 243.5019 0018868 250.2597 289.6629  1.00270486 42984"
      },
      "geometry": {
        "type": "Point",
        "coordinates": [
          -85.2103215727393,
          16.20591294594396
        ]
      }
    },
    {
      "type": "Feature",
      "properties": {
        "norad_id": 39727,
        "name": "LUCH 5V (SDCM/PRN 141)",
        "group": "gnss",
        "lat": -4.302209860494288,
        "lon": -42.45288237218702,
        "alt_km": 35772.93848090881,
        "timestamp": "2025-12-19T08:58:49.581151+00:00",
        "meta_object_name": "LUCH 5V (SDCM/PRN 141)",
        "meta_object_id": "2014-023A",
        "meta_epoch": "2025-12-18T19:26:29.366304",
        "meta_mean_motion": 1.00267484,
        "meta_eccentricity": 0.00043003,
        "meta_inclination": 4.684,
        "meta_ra_of_asc_node": 71.4833,
        "meta_arg_of_pericenter": 211.5942,
        "meta_mean_anomaly": 190.8844,
        "meta_ephemeris_type": 0,
        "meta_classification_type": "U",
        "meta_norad_cat_id": 39727,
        "meta_element_set_no": 999,
        "meta_rev_at_epoch": 4255,
        "meta_bstar": 0,
        "meta_mean_motion_dot": -2.47e-06,
        "meta_mean_motion_ddot": 0,
        "tle_line1": "1 39727U 14023A   25352.81006211 -.00000247  00000+0  00000+0 0  9996",
        "tle_line2": "2 39727   4.6840  71.4833 0004300 211.5942 190.8844  1.00267484 42551"
      },
      "geometry": {
        "type": "Point",
        "coordinates": [
          -42.45288237218702,
          -4.302209860494288
        ]
      }
    },
    {
      "type": "Feature",
      "properties": {
        "norad_id": 39741,
        "name": "GPS BIIF-6  (PRN 06)",
        "group": "gnss",
        "lat": -52.80858312926218,
        "lon": -81.96441748845463,
        "alt_km": 20099.00831600787,
        "timestamp": "2025-12-19T08:58:49.581166+00:00",
        "meta_object_name": "GPS BIIF-6  (PRN 06)",
        "meta_object_id": "2014-026A",
        "meta_epoch": "2025-12-18T23:24:45.536256",
        "meta_mean_motion": 2.00561013,
        "meta_eccentricity": 0.00393418,
        "meta_inclination": 56.5812,
        "meta_ra_of_asc_node": 338.5339,
        "meta_arg_of_pericenter": 319.0464,
        "meta_mean_anomaly": 40.6644,
        "meta_ephemeris_type": 0,
        "meta_classification_type": "U",
        "meta_norad_cat_id": 39741,
        "meta_element_set_no": 999,
        "meta_rev_at_epoch": 8492,
        "meta_bstar": 0,
        "meta_mean_motion_dot": -8.1e-07,
        "meta_mean_motion_ddot": 0,
        "tle_line1": "1 39741U 14026A   25352.97552704 -.00000081  00000+0  00000+0 0  9991",
        "tle_line2": "2 39741  56.5812 338.5339 0039341 319.0464  40.6644  2.00561013 84929"
      },
      "geometry": {
        "type": "Point",
        "coordinates": [
          -81.96441748845463,
          -52.80858312926218
        ]
      }
    },
    {
      "type": "Feature",
      "properties": {
        "norad_id": 40001,
        "name": "COSMOS 2500 (755)",
        "group": "gnss",
        "lat": 40.53588444649725,
        "lon": -17.086238194957975,
        "alt_km": 19145.291322288547,
        "timestamp": "2025-12-19T08:58:49.581177+00:00",
        "meta_object_name": "COSMOS 2500 (755)",
        "meta_object_id": "2014-032A",
        "meta_epoch": "2025-12-17T21:45:50.523264",
        "meta_mean_motion": 2.13106065,
        "meta_eccentricity": 0.00080575,
        "meta_inclination": 65.3403,
        "meta_ra_of_asc_node": 319.8565,
        "meta_arg_of_pericenter": 219.1485,
        "meta_mean_anomaly": 140.7851,
        "meta_ephemeris_type": 0,
        "meta_classification_type": "U",
        "meta_norad_cat_id": 40001,
        "meta_element_set_no": 999,
        "meta_rev_at_epoch": 8959,
        "meta_bstar": 0,
        "meta_mean_motion_dot": -6.5e-07,
        "meta_mean_motion_ddot": 0,
        "tle_line1": "1 40001U 14032A   25351.90683476 -.00000065  00000+0  00000+0 0  9994",
        "tle_line2": "2 40001  65.3403 319.8565 0008057 219.1485 140.7851  2.13106065 89596"
      },
      "geometry": {
        "type": "Point",
        "coordinates": [
          -17.086238194957975,
          40.53588444649725
        ]
      }
    },
    {
      "type": "Feature",
      "properties": {
        "norad_id": 40105,
        "name": "GPS BIIF-7  (PRN 09)",
        "group": "gnss",
        "lat": -36.009684539149916,
        "lon": -54.093476849818586,
        "alt_km": 20208.676219749315,
        "timestamp": "2025-12-19T08:58:49.581188+00:00",
        "meta_object_name": "GPS BIIF-7  (PRN 09)",
        "meta_object_id": "2014-045A",
        "meta_epoch": "2025-12-18T01:34:21.644256",
        "meta_mean_motion": 2.00572958,
        "meta_eccentricity": 0.00325491,
        "meta_inclination": 55.2322,
        "meta_ra_of_asc_node": 95.6864,
        "meta_arg_of_pericenter": 120.0469,
        "meta_mean_anomaly": 240.2601,
        "meta_ephemeris_type": 0,
        "meta_classification_type": "U",
        "meta_norad_cat_id": 40105,
        "meta_element_set_no": 999,
        "meta_rev_at_epoch": 8244,
        "meta_bstar": 0,
        "meta_mean_motion_dot": -3.8e-07,
        "meta_mean_motion_ddot": 0,
        "tle_line1": "1 40105U 14045A   25352.06552829 -.00000038  00000+0  00000+0 0  9998",
        "tle_line2": "2 40105  55.2322  95.6864 0032549 120.0469 240.2601  2.00572958 82445"
      },
      "geometry": {
        "type": "Point",
        "coordinates": [
          -54.093476849818586,
          -36.009684539149916
        ]
      }
    }
  ]
}